OBJECT_NAME,OBJECT_ID,EPOCH,MEAN_MOTION,ECCENTRICITY,INCLINATION,RA_OF_ASC_NODE,ARG_OF_PERICENTER,MEAN_ANOMALY,EPHEMERIS_TYPE,CLASSIFICATION_TYPE,NORAD_CAT_ID,ELEMENT_SET_NO,REV_AT_EPOCH,BSTAR,MEAN_MOTION_DOT,MEAN_MOTION_DDOT
STARLINK-37992,2026-145E,2026-07-17T00:22:48.029088,15.75276692,.0000395,97.2837,44.9472,110.3042,249.8265,0,U,69681,999,346,.14513E-2,.222933E-2,0
STARLINK-37997,2026-145F,2026-07-17T00:00:02.000160,15.75175815,.0001192,97.2838,44.9322,99.5818,174.9569,0,U,69682,999,471,-.22625E-4,-.3501E-4,0
STARLINK-37990,2026-145G,2026-07-17T00:22:17.586048,15.75276435,.00005,97.2841,44.9475,121.8611,238.2703,0,U,69683,999,346,.1466E-2,.225241E-2,0
STARLINK-37951,2026-145H,2026-07-17T00:20:46.556736,15.75189544,.0002384,97.2831,44.9485,80.3192,279.8343,0,U,69684,999,346,.85503E-3,.12936E-2,0
STARLINK-37957,2026-145J,2026-07-17T00:19:14.868192,15.75237089,.000169,97.2827,44.9492,70.5609,289.5838,0,U,69685,999,346,.10855E-2,.165293E-2,0
STARLINK-37968,2026-145K,2026-07-17T00:10:36.524352,15.75216936,.0001713,97.2834,44.9587,82.0152,278.1307,0,U,69686,999,346,.10178E-2,.154642E-2,0
STARLINK-37977,2026-145L,2026-07-17T00:09:35.606304,15.75211854,.0001908,97.2837,44.9602,87.6275,272.5208,0,U,69687,999,346,.98301E-3,.149226E-2,0
STARLINK-37908,2026-145M,2026-07-17T00:06:33.042240,15.75232706,.0001227,97.2844,44.9639,86.1922,273.9483,0,U,69688,999,346,.11389E-2,.173566E-2,0
STARLINK-37979,2026-145N,2026-07-17T00:06:01.980576,15.75227204,.0001222,97.2833,44.9628,73.1187,287.0212,0,U,69689,999,346,.11525E-2,.175637E-2,0
STARLINK-37940,2026-145P,2026-07-17T00:04:30.560736,15.75270202,.000115,97.2834,44.9651,78.4997,281.6397,0,U,69690,999,346,.13242E-2,.202845E-2,0
STARLINK-37961,2026-145Q,2026-07-16T23:59:56.063616,15.75251193,.0000952,97.2838,44.9688,42.9152,317.2188,0,U,69691,999,346,.10221E-2,.155547E-2,0
STARLINK-37787,2026-145R,2026-07-16T23:56:53.166048,15.75252215,.0000932,97.2839,44.9722,55.3940,304.7413,0,U,69692,999,346,.10556E-2,.160743E-2,0
STARLINK-37962,2026-145S,2026-07-17T01:25:49.510848,15.75174646,.0001605,97.2838,45.0413,73.3010,286.8431,0,U,69693,999,347,.98327E-3,.14902E-2,0
STARLINK-37953,2026-145T,2026-07-16T23:58:24.692160,15.75247707,.0001224,97.2852,44.9715,75.4671,284.6730,0,U,69694,999,346,.10364E-2,.157735E-2,0
STARLINK-37926,2026-145U,2026-07-17T00:00:02.000160,15.75186205,.0001294,97.2842,44.9739,85.9645,284.5646,0,U,69695,999,471,-.16806E-3,-.25119E-3,0
STARLINK-37959,2026-145V,2026-07-16T23:55:52.126176,15.75267089,.0001052,97.2834,44.9722,43.2910,316.8438,0,U,69696,999,346,.12547E-2,.191917E-2,0
STARLINK-37976,2026-145W,2026-07-17T01:23:17.045088,15.75171262,.0001398,97.2840,45.0434,61.3312,298.8094,0,U,69697,999,347,.12615E-2,.192168E-2,0
STARLINK-37912,2026-145X,2026-07-17T01:21:45.250272,15.75285434,.0001402,97.2835,45.0455,60.5202,299.6203,0,U,69698,999,347,.14293E-2,.219535E-2,0
STARLINK-37974,2026-145Y,2026-07-17T01:20:44.811744,15.75254304,.0001635,97.2835,45.0460,78.3038,281.8410,0,U,69699,999,347,.10723E-2,.163366E-2,0
STARLINK-37955,2026-145Z,2026-07-17T01:17:11.378688,15.75253311,.0001393,97.2833,45.0506,65.2434,294.8976,0,U,69700,999,347,.10009E-2,.152265E-2,0
STRIX-8,2026-146A,2026-07-16T21:05:13.540416,15.04442870,.0006931,41.9904,3.7675,34.5343,325.5933,0,U,69701,999,303,.17909E-3,.2356E-4,0
ELECTRON R/B,2026-146B,2026-07-16T15:01:23.119392,15.76359367,.0164607,42.0731,353.8319,30.3715,330.6555,0,U,69702,999,313,.10034E-2,.41826E-2,.63194E-4
ELECTRON KICK STAGE R/B,2026-146C,2026-07-16T17:44:09.803040,15.04949718,.0008744,41.9887,4.4474,34.5329,325.6065,0,U,69703,999,301,.14998E-3,.197E-4,0
STARLINK-38055,2026-147A,2026-07-17T01:38:18.070080,15.80904625,.0001183,97.2818,234.5635,123.3375,236.8006,0,U,69704,999,415,.10202E-2,.200652E-2,0
STARLINK-37898,2026-147B,2026-07-17T01:37:06.879936,15.80943483,.000157,97.2830,234.5641,118.6756,241.4670,0,U,69705,999,415,.14125E-2,.280954E-2,0
STARLINK-37970,2026-147C,2026-07-17T01:36:01.845792,15.80956391,.0001559,97.2819,234.5660,121.6678,238.4743,0,U,69706,999,415,.15307E-2,.305508E-2,0
STARLINK-37975,2026-147D,2026-07-17T01:34:56.900640,15.80957966,.0001505,97.2816,234.5667,114.2595,245.8830,0,U,69707,999,415,.15523E-2,.310013E-2,0
STARLINK-37972,2026-147E,2026-07-17T01:33:51.042240,15.80803102,.0001234,97.2816,234.5680,107.7911,252.3492,0,U,69708,999,415,.76477E-3,.148783E-2,0
STARLINK-37963,2026-147F,2026-07-17T01:32:47.003424,15.80878956,.0001386,97.2817,234.5683,102.4819,257.6605,0,U,69709,999,415,.6858E-3,.133636E-2,0
STARLINK-37969,2026-147G,2026-07-17T01:31:41.964960,15.80870115,.0001515,97.2817,234.5703,120.0313,240.1105,0,U,69710,999,415,.86098E-3,.168415E-2,0
