STARLINK-37992          
1 69681U 26145E   26198.01583367  .00222933  00000+0  14513-2 0  9993
2 69681  97.2837  44.9472 0000395 110.3042 249.8265 15.75276692  3465
STARLINK-37997          
1 69682U 26145F   26198.00002315 -.00003501  00000+0 -22625-4 0  9997
2 69682  97.2838  44.9322 0001192  99.5818 174.9569 15.75175815  4715
STARLINK-37990          
1 69683U 26145G   26198.01548132  .00225241  00000+0  14660-2 0  9994
2 69683  97.2841  44.9475 0000500 121.8611 238.2703 15.75276435  3466
STARLINK-37951          
1 69684U 26145H   26198.01442774  .00129360  00000+0  85503-3 0  9990
2 69684  97.2831  44.9485 0002384  80.3192 279.8343 15.75189544  3467
STARLINK-37957          
1 69685U 26145J   26198.01336653  .00165293  00000+0  10855-2 0  9991
2 69685  97.2827  44.9492 0001690  70.5609 289.5838 15.75237089  3469
STARLINK-37968          
1 69686U 26145K   26198.00736718  .00154642  00000+0  10178-2 0  9991
2 69686  97.2834  44.9587 0001713  82.0152 278.1307 15.75216936  3463
STARLINK-37977          
1 69687U 26145L   26198.00666211  .00149226  00000+0  98301-3 0  9999
2 69687  97.2837  44.9602 0001908  87.6275 272.5208 15.75211854  3460
STARLINK-37908          
1 69688U 26145M   26198.00454910  .00173566  00000+0  11389-2 0  9995
2 69688  97.2844  44.9639 0001227  86.1922 273.9483 15.75232706  3465
STARLINK-37979          
1 69689U 26145N   26198.00418959  .00175637  00000+0  11525-2 0  9992
2 69689  97.2833  44.9628 0001222  73.1187 287.0212 15.75227204  3469
STARLINK-37940          
1 69690U 26145P   26198.00313149  .00202845  00000+0  13242-2 0  9999
2 69690  97.2834  44.9651 0001150  78.4997 281.6397 15.75270202  3465
STARLINK-37961          
1 69691U 26145Q   26197.99995444  .00155547  00000+0  10221-2 0  9991
2 69691  97.2838  44.9688 0000952  42.9152 317.2188 15.75251193  3460
STARLINK-37787          
1 69692U 26145R   26197.99783757  .00160743  00000+0  10556-2 0  9999
2 69692  97.2839  44.9722 0000932  55.3940 304.7413 15.75252215  3460
STARLINK-37962          
1 69693U 26145S   26198.05960082  .00149020  00000+0  98327-3 0  9994
2 69693  97.2838  45.0413 0001605  73.3010 286.8431 15.75174646  3477
STARLINK-37953          
1 69694U 26145T   26197.99889690  .00157735  00000+0  10364-2 0  9998
2 69694  97.2852  44.9715 0001224  75.4671 284.6730 15.75247707  3466
STARLINK-37926          
1 69695U 26145U   26198.00002315 -.00025119  00000+0 -16806-3 0  9993
2 69695  97.2842  44.9739 0001294  85.9645 284.5646 15.75186205  4715
STARLINK-37959          
1 69696U 26145V   26197.99713109  .00191917  00000+0  12547-2 0  9996
2 69696  97.2834  44.9722 0001052  43.2910 316.8438 15.75267089  3462
STARLINK-37976          
1 69697U 26145W   26198.05783617  .00192168  00000+0  12615-2 0  9991
2 69697  97.2840  45.0434 0001398  61.3312 298.8094 15.75171262  3477
STARLINK-37912          
1 69698U 26145X   26198.05677373  .00219535  00000+0  14293-2 0  9995
2 69698  97.2835  45.0455 0001402  60.5202 299.6203 15.75285434  3478
STARLINK-37974          
1 69699U 26145Y   26198.05607421  .00163366  00000+0  10723-2 0  9997
2 69699  97.2835  45.0460 0001635  78.3038 281.8410 15.75254304  3472
STARLINK-37955          
1 69700U 26145Z   26198.05360392  .00152265  00000+0  10009-2 0  9996
2 69700  97.2833  45.0506 0001393  65.2434 294.8976 15.75253311  3478
STRIX-8                 
1 69701U 26146A   26197.87862894  .00002356  00000+0  17909-3 0  9993
2 69701  41.9904   3.7675 0006931  34.5343 325.5933 15.04442870  3032
ELECTRON R/B            
1 69702U 26146B   26197.62596203  .00418260  63194-4  10034-2 0  9999
2 69702  42.0731 353.8319 0164607  30.3715 330.6555 15.76359367  3134
ELECTRON KICK STAGE R/B 
1 69703U 26146C   26197.73900235  .00001970  00000+0  14998-3 0  9998
2 69703  41.9887   4.4474 0008744  34.5329 325.6065 15.04949718  3015
STARLINK-38055          
1 69704U 26147A   26198.06826470  .00200652  00000+0  10202-2 0  9996
2 69704  97.2818 234.5635 0001183 123.3375 236.8006 15.80904625  4153
STARLINK-37898          
1 69705U 26147B   26198.06744074  .00280954  00000+0  14125-2 0  9997
2 69705  97.2830 234.5641 0001570 118.6756 241.4670 15.80943483  4159
STARLINK-37970          
1 69706U 26147C   26198.06668803  .00305508  00000+0  15307-2 0  9999
2 69706  97.2819 234.5660 0001559 121.6678 238.4743 15.80956391  4151
STARLINK-37975          
1 69707U 26147D   26198.06593635  .00310013  00000+0  15523-2 0  9997
2 69707  97.2816 234.5667 0001505 114.2595 245.8830 15.80957966  4151
STARLINK-37972          
1 69708U 26147E   26198.06517410  .00148783  00000+0  76477-3 0  9994
2 69708  97.2816 234.5680 0001234 107.7911 252.3492 15.80803102  4154
STARLINK-37963          
1 69709U 26147F   26198.06443291  .00133636  00000+0  68580-3 0  9997
2 69709  97.2817 234.5683 0001386 102.4819 257.6605 15.80878956  4159
STARLINK-37969          
1 69710U 26147G   26198.06368015  .00168415  00000+0  86098-3 0  9996
2 69710  97.2817 234.5703 0001515 120.0313 240.1105 15.80870115  4154
